{
"type": "FeatureCollection",
"name": "forets",
"crs": { "type": "name", "properties": { "name": "urn:ogc:def:crs:OGC:1.3:CRS84" } },
"features": [
{ "type": "Feature", "properties": { "region": "Plateaux", "prefecture": "Wawa", "nom": "Forêt classée des Deux Bena", "creation": "Nsp", "surface_km2": 62.8, "lat": 7.5246116360366386, "lon": 0.62340442560923437 }, "geometry": { "type": "Polygon", "coordinates": [ [ [ 0.640286691264916, 7.598392552226026 ], [ 0.650733147013614, 7.594887004299956 ], [ 0.656891891558939, 7.585170995256224 ], [ 0.613929719751181, 7.424091506943052 ], [ 0.608595128511121, 7.425613673769957 ], [ 0.595953659593928, 7.464759914890751 ], [ 0.608978243822783, 7.514103820412479 ], [ 0.607532517303607, 7.536632154576597 ], [ 0.600841299715977, 7.551111999591662 ], [ 0.610774163867151, 7.579938139704646 ], [ 0.623793558205672, 7.583232260143943 ], [ 0.640286691264916, 7.598392552226026 ] ] ] } },
{ "type": "Feature", "properties": { "region": "Maritime", "prefecture": "Zio", "nom": "Yohoeve", "creation": "1884", "surface_km2": 0.0, "lat": 6.4603283895856709, "lon": 1.1895575212263347 }, "geometry": { "type": "Polygon", "coordinates": [ [ [ 1.189238333333333, 6.460268333333333 ], [ 1.189751666666667, 6.46056 ], [ 1.189236666666667, 6.460395 ], [ 1.189238333333333, 6.460268333333333 ] ] ] } },
{ "type": "Feature", "properties": { "region": "Centrale", "prefecture": "Tchaoudjo", "nom": "Forêt classée de Kemeni", "creation": "Nsp", "surface_km2": 8.0, "lat": 9.2388327306311027, "lon": 1.240708855674568 }, "geometry": { "type": "Polygon", "coordinates": [ [ [ 1.255701879258879, 9.262849860556166 ], [ 1.262368160054646, 9.26056826499191 ], [ 1.259100089687775, 9.248486576591434 ], [ 1.250132684441818, 9.245137254710862 ], [ 1.234418750960479, 9.22687911927687 ], [ 1.224535850058044, 9.207161816817077 ], [ 1.22018362401771, 9.212594659469714 ], [ 1.22477026761128, 9.22683160885952 ], [ 1.238960055090482, 9.25037167567204 ], [ 1.255701879258879, 9.262849860556166 ] ] ] } },
{ "type": "Feature", "properties": { "region": "Centrale", "prefecture": "Sotouboua", "nom": "Forêt classée de Sotouboua", "creation": "1952", "surface_km2": 27.7, "lat": 8.5092549587967117, "lon": 0.99166548564173373 }, "geometry": { "type": "Polygon", "coordinates": [ [ [ 0.975519562845892, 8.554419961419848 ], [ 0.983049293761956, 8.550472961646642 ], [ 1.010026649917594, 8.512741800070939 ], [ 1.016245629670818, 8.471414437818092 ], [ 1.012019635528462, 8.465911619897783 ], [ 0.99647521304338, 8.471562648529725 ], [ 0.986589965507594, 8.495679090717516 ], [ 0.975556570107226, 8.499857359504942 ], [ 0.965601743012726, 8.536678737026621 ], [ 0.975519562845892, 8.554419961419848 ] ] ] } },
{ "type": "Feature", "properties": { "region": "Centrale", "prefecture": "Blitta", "nom": "Tchorogo", "creation": "1945", "surface_km2": 17.6, "lat": 8.3549533806549796, "lon": 0.98612899642573948 }, "geometry": { "type": "Polygon", "coordinates": [ [ [ 0.966217374571804, 8.352939388940904 ], [ 0.972108510194528, 8.36965152639247 ], [ 0.993223633825726, 8.387215920643019 ], [ 1.009437615941144, 8.34466506363998 ], [ 0.997952259981812, 8.343709666811975 ], [ 0.975511019435117, 8.326542756761619 ], [ 0.966217374571804, 8.352939388940904 ] ] ] } },
{ "type": "Feature", "properties": { "region": "Centrale", "prefecture": "Sotouboua", "nom": "Forêt classée Aou-mono", "creation": "1954", "surface_km2": 67.9, "lat": 8.6572214128874005, "lon": 1.2011626535258582 }, "geometry": { "type": "Polygon", "coordinates": [ [ [ 1.264947672025498, 8.667155497984409 ], [ 1.267681660270181, 8.655761723748203 ], [ 1.260959754638922, 8.647258996984844 ], [ 1.2645211209897, 8.635065164829564 ], [ 1.260055269504544, 8.626074329152171 ], [ 1.263861016900644, 8.615127483541864 ], [ 1.26012251512698, 8.611372822059408 ], [ 1.260685816098174, 8.597670279411501 ], [ 1.252848082556794, 8.614330013435087 ], [ 1.231447256361153, 8.639897593461567 ], [ 1.18037548880527, 8.638412577729794 ], [ 1.129944791493377, 8.659598037457537 ], [ 1.115861322419347, 8.67198706391434 ], [ 1.115579868415817, 8.678214761643741 ], [ 1.120311310217096, 8.683470550077871 ], [ 1.154408382752574, 8.674916229482475 ], [ 1.174624415803106, 8.688717889002945 ], [ 1.183179124990393, 8.680286909801245 ], [ 1.199926618377242, 8.686595688361775 ], [ 1.224532688653128, 8.672757141718165 ], [ 1.264947672025498, 8.667155497984409 ] ] ] } },
{ "type": "Feature", "properties": { "region": "Centrale", "prefecture": "Blitta", "nom": "Forêt classée de Mont Balam", "creation": "Nsp", "surface_km2": 48.7, "lat": 8.2315484734943389, "lon": 0.93644099818105075 }, "geometry": { "type": "Polygon", "coordinates": [ [ [ 0.901361216526152, 8.259974865567898 ], [ 0.92489774459174, 8.277970605438457 ], [ 0.95230752561157, 8.266777816239147 ], [ 0.949272403033584, 8.261313095304446 ], [ 0.953751673579789, 8.241283030170223 ], [ 0.965599885750306, 8.234804234399434 ], [ 0.974277668980986, 8.206294010802631 ], [ 0.96213060967143, 8.185743643125488 ], [ 0.952252900990301, 8.192232693682419 ], [ 0.950897909012944, 8.200508578520356 ], [ 0.931646348326897, 8.200410231969265 ], [ 0.926860596214059, 8.195154497624827 ], [ 0.915685569683163, 8.198584296832328 ], [ 0.901361216526152, 8.259974865567898 ] ] ] } },
{ "type": "Feature", "properties": { "region": "Centrale", "prefecture": "Blitta", "nom": "Forêt classée Assoukoko", "creation": "Nsp", "surface_km2": 84.0, "lat": 8.0126787338595857, "lon": 0.61724920668322758 }, "geometry": { "type": "Polygon", "coordinates": [ [ [ 0.621268086055565, 7.90223219608415 ], [ 0.61359845771484, 7.94495307839846 ], [ 0.599381483943213, 7.978177869926735 ], [ 0.598901747618437, 7.989688493074953 ], [ 0.605892401328265, 7.993429803989833 ], [ 0.600030939832008, 8.008198744313141 ], [ 0.602433713749161, 8.020548530364623 ], [ 0.592834464485845, 8.039407285960166 ], [ 0.597294786743615, 8.052591529761889 ], [ 0.589305354639977, 8.078038361521962 ], [ 0.589883408707146, 8.119571813860981 ], [ 0.596018746128463, 8.128654291902837 ], [ 0.611327244734594, 8.121754254751979 ], [ 0.620286959492943, 8.071640689697343 ], [ 0.633573057313554, 8.057325678661368 ], [ 0.629476162618904, 8.052367597296387 ], [ 0.630070142066897, 8.021119736618589 ], [ 0.633432152621996, 8.010447809894702 ], [ 0.641720331435983, 8.003916026141241 ], [ 0.641154848210496, 7.95868020826471 ], [ 0.65199124193975, 7.939003652990629 ], [ 0.638938350768265, 7.913435002407329 ], [ 0.633567526369332, 7.915049386916661 ], [ 0.627034686241983, 7.903498601065979 ], [ 0.621268086055565, 7.90223219608415 ] ] ] } },
{ "type": "Feature", "properties": { "region": "Centrale", "prefecture": "Blitta", "nom": "Forêt classée de You", "creation": "Nsp", "surface_km2": 1.6, "lat": 8.299974398881103, "lon": 0.98912820512936006 }, "geometry": { "type": "Polygon", "coordinates": [ [ [ 0.984806538622707, 8.308145082874265 ], [ 0.992050926539771, 8.309145455630542 ], [ 0.99486424674864, 8.291499864320219 ], [ 0.985823486815587, 8.291842014256066 ], [ 0.984806538622707, 8.308145082874265 ] ] ] } },
{ "type": "Feature", "properties": { "region": "Kara", "prefecture": "Kéran", "nom": "Forêt classée Behao", "creation": "1954", "surface_km2": 3.0, "lat": 9.9136276371611167, "lon": 1.035766436040956 }, "geometry": { "type": "Polygon", "coordinates": [ [ [ 1.043336479526121, 9.925076109059237 ], [ 1.038864870162044, 9.902656502841712 ], [ 1.032745055742866, 9.899359538008149 ], [ 1.029140900500586, 9.915426844285063 ], [ 1.038280228643278, 9.927220672312561 ], [ 1.043336479526121, 9.925076109059237 ] ] ] } },
{ "type": "Feature", "properties": { "region": "Kara", "prefecture": "Doufelgou", "nom": "Forêt classée Manda", "creation": "1954", "surface_km2": 13.2, "lat": 9.6956947426274258, "lon": 0.98077933297486364 }, "geometry": { "type": "Polygon", "coordinates": [ [ [ 1.011694082330444, 9.744158743572559 ], [ 0.998903336240835, 9.711709177733248 ], [ 0.967982207105751, 9.66070286567254 ], [ 0.959224613039475, 9.658562359678831 ], [ 0.955678748242585, 9.664807253255823 ], [ 0.958390674291881, 9.680488252825175 ], [ 0.980718800998, 9.70150709504183 ], [ 1.001544820955536, 9.739573924351697 ], [ 1.011694082330444, 9.744158743572559 ] ] ] } },
{ "type": "Feature", "properties": { "region": "Kara", "prefecture": "Doufelgou", "nom": "Forêt classée de Koularo", "creation": "1954", "surface_km2": 3.9, "lat": 9.6539733704867796, "lon": 0.98361705004501654 }, "geometry": { "type": "Polygon", "coordinates": [ [ [ 0.978702454987415, 9.642347124042278 ], [ 0.974847323907659, 9.653265161386063 ], [ 0.981320195865746, 9.665611482910654 ], [ 0.986833030635905, 9.665643811035457 ], [ 0.992739079001104, 9.657472761648521 ], [ 0.992106699455221, 9.647895887954638 ], [ 0.978702454987415, 9.642347124042278 ] ] ] } },
{ "type": "Feature", "properties": { "region": "Kara", "prefecture": "Bassar", "nom": "Forêt classée de Kabou", "creation": "1954", "surface_km2": 1.1, "lat": 9.4450645845023438, "lon": 0.84083143634984325 }, "geometry": { "type": "Polygon", "coordinates": [ [ [ 0.8413907465356, 9.452720726797427 ], [ 0.844531912963668, 9.443091321583314 ], [ 0.840771373207709, 9.438008570719902 ], [ 0.836365594793981, 9.441393824450405 ], [ 0.8413907465356, 9.452720726797427 ] ] ] } },
{ "type": "Feature", "properties": { "region": "Kara", "prefecture": "Binah", "nom": "Forêt classée de Sirika", "creation": "Nsp", "surface_km2": 11.6, "lat": 9.543840029726125, "lon": 1.2777622636025092 }, "geometry": { "type": "Polygon", "coordinates": [ [ [ 1.278858947495435, 9.566695778533775 ], [ 1.301744228418334, 9.537058113712455 ], [ 1.286256146398943, 9.534246599774322 ], [ 1.275964722461784, 9.525646969262201 ], [ 1.271793251023155, 9.533149291497219 ], [ 1.265632423478992, 9.525253774425137 ], [ 1.255587346771531, 9.536146081697146 ], [ 1.255554311861671, 9.542642973295923 ], [ 1.26794188051115, 9.545440456303512 ], [ 1.268553083685728, 9.560831354553818 ], [ 1.278858947495435, 9.566695778533775 ] ] ] } },
{ "type": "Feature", "properties": { "region": "Kara", "prefecture": "Kozah", "nom": "Forêt classée de Kindja", "creation": "1954", "surface_km2": 8.4, "lat": 9.5332733426894034, "lon": 1.1099667192739957 }, "geometry": { "type": "Polygon", "coordinates": [ [ [ 1.11219354401416, 9.553178468371396 ], [ 1.114297965257052, 9.54635139296956 ], [ 1.126033885568684, 9.541969751356074 ], [ 1.119599716906689, 9.521761413068035 ], [ 1.107617909435612, 9.508361568856836 ], [ 1.092601029824747, 9.545549278958525 ], [ 1.099845933524203, 9.543537386534908 ], [ 1.11219354401416, 9.553178468371396 ] ] ] } },
{ "type": "Feature", "properties": { "region": "Kara", "prefecture": "Assoli", "nom": "Réserve Forestière de Doumboua", "creation": "1954", "surface_km2": 8.2, "lat": 9.3315563636206598, "lon": 1.2265024271107088 }, "geometry": { "type": "Polygon", "coordinates": [ [ [ 1.23996618529364, 9.346875392816337 ], [ 1.24418903604286, 9.331058053462378 ], [ 1.241444930776973, 9.327427892110606 ], [ 1.208994669389017, 9.313922221349587 ], [ 1.204337318387745, 9.316268234788618 ], [ 1.226159551183736, 9.345809014504598 ], [ 1.23996618529364, 9.346875392816337 ] ] ] } },
{ "type": "Feature", "properties": { "region": "Kara", "prefecture": "Dankpen", "nom": "Forêt classée de Sadjibou", "creation": "1955", "surface_km2": 183.1, "lat": 9.5870094238378964, "lon": 0.51443833349331336 }, "geometry": { "type": "Polygon", "coordinates": [ [ [ 0.625893436273889, 9.560009116282297 ], [ 0.604504587976291, 9.572959776341593 ], [ 0.587636199223018, 9.568477104333459 ], [ 0.577070625163054, 9.556684909016093 ], [ 0.511777744740967, 9.558521148964431 ], [ 0.499115672627691, 9.549009915371611 ], [ 0.481750545539524, 9.518096616267126 ], [ 0.46796068704316, 9.504900529677963 ], [ 0.437258520701169, 9.525354439154473 ], [ 0.44950249430724, 9.528431072566885 ], [ 0.450036248885758, 9.550032004575607 ], [ 0.442075834929327, 9.562150495787902 ], [ 0.446293321126296, 9.586305767759798 ], [ 0.443251390297162, 9.590648654428245 ], [ 0.435387971716908, 9.589671493271164 ], [ 0.416253560037174, 9.609747187238799 ], [ 0.419182750787181, 9.620337551741219 ], [ 0.413762163076063, 9.632933152790942 ], [ 0.408427053814929, 9.634271579191122 ], [ 0.420472316295569, 9.63344291763215 ], [ 0.421683907954111, 9.626329736634474 ], [ 0.451763933227871, 9.628621002278006 ], [ 0.45734421537348, 9.62544559712553 ], [ 0.475534357317347, 9.638905171357623 ], [ 0.491773092212214, 9.634658278927093 ], [ 0.496352646244555, 9.641584436632996 ], [ 0.506367349170172, 9.633615329424011 ], [ 0.519552392927411, 9.63531879896869 ], [ 0.544858618557321, 9.625849597042485 ], [ 0.566817285481725, 9.631060162586627 ], [ 0.578653226506303, 9.627237270956634 ], [ 0.586372028974292, 9.61626204708295 ], [ 0.604683551562456, 9.613402376682131 ], [ 0.605587012636454, 9.616625564400266 ], [ 0.628208550310194, 9.593343668730418 ], [ 0.629977505772106, 9.571985814397515 ], [ 0.625893436273889, 9.560009116282297 ] ] ] } },
{ "type": "Feature", "properties": { "region": "Kara", "prefecture": "Kéran", "nom": "Forêt classée de Natiwah", "creation": "1958", "surface_km2": 10.2, "lat": 10.17384439646249, "lon": 0.96859126366070136 }, "geometry": { "type": "Polygon", "coordinates": [ [ [ 0.978385328448255, 10.2085492045058 ], [ 0.985560754912167, 10.196164162694854 ], [ 0.977640786285044, 10.185945722629722 ], [ 0.974115350535391, 10.16219510306216 ], [ 0.969377719600336, 10.149861979194064 ], [ 0.955598781141559, 10.144628923096786 ], [ 0.950234645543942, 10.151249484584213 ], [ 0.952097777232434, 10.157161864078237 ], [ 0.967036274295856, 10.179476969711516 ], [ 0.969050653168514, 10.201586050157525 ], [ 0.978385328448255, 10.2085492045058 ] ] ] } },
{ "type": "Feature", "properties": { "region": "Kara", "prefecture": "Kéran", "nom": "Forêt classée de Wartema", "creation": "Nsp", "surface_km2": 4.0, "lat": 10.058118864441505, "lon": 1.1174613367284316 }, "geometry": { "type": "Polygon", "coordinates": [ [ [ 1.116060109999417, 10.073643648530627 ], [ 1.126356369203544, 10.045827729587655 ], [ 1.119792034021814, 10.041772609357377 ], [ 1.108281179835825, 10.06054102842085 ], [ 1.107745173070764, 10.065560337609636 ], [ 1.116060109999417, 10.073643648530627 ] ] ] } },
{ "type": "Feature", "properties": { "region": "Kara", "prefecture": "Doufelgou", "nom": "Forêt de Biragou", "creation": "1954", "surface_km2": 0.0, "lat": 9.8134545843899463, "lon": 1.2058586635518203 }, "geometry": { "type": "Polygon", "coordinates": [ [ [ 1.205700159607485, 9.814045808668372 ], [ 1.206343117395429, 9.812951963059298 ], [ 1.20644870267745, 9.813779768492267 ], [ 1.205700159607485, 9.814045808668372 ] ] ] } },
{ "type": "Feature", "properties": { "region": "Kara", "prefecture": "Bassar", "nom": "Forêt Tiyadja", "creation": "Nsp", "surface_km2": 0.0, "lat": 9.2732396670608583, "lon": 0.69444063154187941 }, "geometry": { "type": "Polygon", "coordinates": [ [ [ 0.695413417890082, 9.272806807948342 ], [ 0.693318612561804, 9.274627550471749 ], [ 0.693820878418979, 9.275038399822314 ], [ 0.695413417890082, 9.272806807948342 ] ] ] } },
{ "type": "Feature", "properties": { "region": "Maritime", "prefecture": "Bas-Mono", "nom": "Dagbazé", "creation": "Jadis", "surface_km2": 0.0, "lat": 6.4735706716689574, "lon": 1.7402980474078884 }, "geometry": { "type": "Polygon", "coordinates": [ [ [ 1.740004705311845, 6.473607818458874 ], [ 1.740567262029278, 6.473538433753156 ], [ 1.740278656080181, 6.473330259750991 ], [ 1.740004705311845, 6.473607818458874 ] ] ] } },
{ "type": "Feature", "properties": { "region": "Maritime", "prefecture": "Zio", "nom": "Sove", "creation": "1886", "surface_km2": 0.0, "lat": 6.4995601828731928, "lon": 1.3189712938000879 }, "geometry": { "type": "Polygon", "coordinates": [ [ [ 1.318552424289504, 6.499231644760267 ], [ 1.319458333333333, 6.499436666666666 ], [ 1.318854567632848, 6.500282490125247 ], [ 1.318552424289504, 6.499231644760267 ] ] ] } },
{ "type": "Feature", "properties": { "region": "Maritime", "prefecture": "Bas-Mono", "nom": "Agueno", "creation": "Nps", "surface_km2": 0.0, "lat": 6.4705095076495764, "lon": 1.7466184487355378 }, "geometry": { "type": "Polygon", "coordinates": [ [ [ 1.74741195971898, 6.470441619905748 ], [ 1.745911953879225, 6.470555127434778 ], [ 1.746271590940782, 6.469630078783239 ], [ 1.74741195971898, 6.470441619905748 ] ] ] } },
{ "type": "Feature", "properties": { "region": "Maritime", "prefecture": "Bas-Mono", "nom": "Adidomé", "creation": "1980", "surface_km2": 0.0, "lat": 6.4368382883114261, "lon": 1.6761396808322193 }, "geometry": { "type": "Polygon", "coordinates": [ [ [ 1.676080169971438, 6.436968627064809 ], [ 1.676229241921594, 6.436747785221718 ], [ 1.676269218584084, 6.436893221238832 ], [ 1.676080169971438, 6.436968627064809 ] ] ] } },
{ "type": "Feature", "properties": { "region": "Maritime", "prefecture": "Zio", "nom": "Golove", "creation": "1884", "surface_km2": 0.5, "lat": 6.5291442367931687, "lon": 1.2539933763508699 }, "geometry": { "type": "Polygon", "coordinates": [ [ [ 1.250029507198322, 6.528876137162444 ], [ 1.253548846035358, 6.53342415465072 ], [ 1.258150461656902, 6.531084084729918 ], [ 1.253196260374117, 6.523544284205113 ], [ 1.250029507198322, 6.528876137162444 ] ] ] } },
{ "type": "Feature", "properties": { "region": "Maritime", "prefecture": "Bas-Mono", "nom": "Forêt de Dagbaze", "creation": "Nsp", "surface_km2": 0.0, "lat": 6.4939535761524807, "lon": 1.7114225447819058 }, "geometry": { "type": "Polygon", "coordinates": [ [ [ 1.711794171364962, 6.494376675401294 ], [ 1.711014694112857, 6.493406119929395 ], [ 1.711460513281482, 6.494780987646918 ], [ 1.711794171364962, 6.494376675401294 ] ] ] } },
{ "type": "Feature", "properties": { "region": "Maritime", "prefecture": "Zio", "nom": "Bape", "creation": "1880", "surface_km2": 0.0, "lat": 6.4239405183435707, "lon": 1.1612580312006986 }, "geometry": { "type": "Polygon", "coordinates": [ [ [ 1.161468333333334, 6.424365 ], [ 1.160896666666667, 6.42352 ], [ 1.160973333333333, 6.424581666666668 ], [ 1.161468333333334, 6.424365 ] ] ] } },
{ "type": "Feature", "properties": { "region": "Maritime", "prefecture": "Zio", "nom": "Mariatodji", "creation": "1996", "surface_km2": 0.0, "lat": 6.474338453620673, "lon": 1.2510843208835127 }, "geometry": { "type": "Polygon", "coordinates": [ [ [ 1.250141194941397, 6.473849114379068 ], [ 1.251936072062422, 6.47466285039629 ], [ 1.250740860308245, 6.475199730462724 ], [ 1.250141194941397, 6.473849114379068 ] ] ] } },
{ "type": "Feature", "properties": { "region": "Maritime", "prefecture": "Zio", "nom": "Nanave", "creation": "1700", "surface_km2": 0.0, "lat": 6.4737000651405046, "lon": 1.2484067203214695 }, "geometry": { "type": "Polygon", "coordinates": [ [ [ 1.249118333333334, 6.473168333333333 ], [ 1.247796666666667, 6.474478333333334 ], [ 1.2485, 6.472825 ], [ 1.249118333333334, 6.473168333333333 ] ] ] } },
{ "type": "Feature", "properties": { "region": "Plateaux", "prefecture": "Ogou", "nom": "Forêt classée de Blakpa", "creation": "1920", "surface_km2": 4.9, "lat": 7.6128594607646773, "lon": 1.191533797115844 }, "geometry": { "type": "Polygon", "coordinates": [ [ [ 1.19784479680152, 7.627061146821548 ], [ 1.203502905851681, 7.625757681135275 ], [ 1.203248511261472, 7.607012697601707 ], [ 1.187124943633347, 7.60644796991209 ], [ 1.183823803146886, 7.60079444765763 ], [ 1.172177885923775, 7.60290190147144 ], [ 1.175639495664984, 7.609883139991704 ], [ 1.182963289761326, 7.60775754293963 ], [ 1.18541367724518, 7.618051986534921 ], [ 1.19784479680152, 7.627061146821548 ] ] ] } },
{ "type": "Feature", "properties": { "region": "Plateaux", "prefecture": "Ogou", "nom": "Forêt classée", "creation": "Nsp", "surface_km2": 5.4, "lat": 7.5411518049509825, "lon": 1.1387224707018559 }, "geometry": { "type": "Polygon", "coordinates": [ [ [ 1.14749969581795, 7.556769468619091 ], [ 1.144471669326075, 7.53626651847966 ], [ 1.149035326167042, 7.528655030591572 ], [ 1.145795349042113, 7.524684615402733 ], [ 1.135011575993049, 7.529867341217786 ], [ 1.126320600183047, 7.542265490770339 ], [ 1.130381535803359, 7.552881111093281 ], [ 1.14749969581795, 7.556769468619091 ] ] ] } },
{ "type": "Feature", "properties": { "region": "Plateaux", "prefecture": "Agou", "nom": "Wouto", "creation": "1939", "surface_km2": 16.8, "lat": 6.7614234269985491, "lon": 0.79623813471225025 }, "geometry": { "type": "Polygon", "coordinates": [ [ [ 0.795725658280054, 6.792902781820706 ], [ 0.805426672290107, 6.781333987467494 ], [ 0.818170743875675, 6.749701887656545 ], [ 0.815638514486611, 6.743588832119778 ], [ 0.787486462800886, 6.742871489410405 ], [ 0.781275618263457, 6.723160771750492 ], [ 0.778056679410268, 6.738301668335708 ], [ 0.786008911590487, 6.764712428402409 ], [ 0.783741502770787, 6.786943343664557 ], [ 0.795725658280054, 6.792902781820706 ] ] ] } },
{ "type": "Feature", "properties": { "region": "Plateaux", "prefecture": "Haho", "nom": "Djemegni", "creation": "1941", "surface_km2": 1.0, "lat": 6.9570461312768508, "lon": 1.2813550280440418 }, "geometry": { "type": "Polygon", "coordinates": [ [ [ 1.285625594795531, 6.963224605541613 ], [ 1.287370851067477, 6.958055456701465 ], [ 1.278979451754539, 6.951124407455791 ], [ 1.275065066525197, 6.959304617747393 ], [ 1.285625594795531, 6.963224605541613 ] ] ] } },
{ "type": "Feature", "properties": { "region": "Plateaux", "prefecture": "Haho", "nom": "Nuatja Sud", "creation": "2005", "surface_km2": 12.4, "lat": 6.891253496751677, "lon": 1.1694895955939464 }, "geometry": { "type": "Polygon", "coordinates": [ [ [ 1.153534901509222, 6.912269907125361 ], [ 1.179414544792595, 6.915819671500018 ], [ 1.180491384862363, 6.859759157455469 ], [ 1.167975356064933, 6.860358427615983 ], [ 1.153534901509222, 6.912269907125361 ] ] ] } },
{ "type": "Feature", "properties": { "region": "Plateaux", "prefecture": "Haho", "nom": "Wahala-agbatitoe", "creation": "1950", "surface_km2": 4.4, "lat": 7.159858171077838, "lon": 1.1841397027654759 }, "geometry": { "type": "Polygon", "coordinates": [ [ [ 1.17511558899247, 7.143612584504906 ], [ 1.177125819141299, 7.155961195376936 ], [ 1.170488741329375, 7.167864121793698 ], [ 1.179945087886392, 7.172015223872067 ], [ 1.191084837938253, 7.167122931353817 ], [ 1.201434532680401, 7.153588648035872 ], [ 1.183733248949965, 7.151462388117236 ], [ 1.17511558899247, 7.143612584504906 ] ] ] } },
{ "type": "Feature", "properties": { "region": "Plateaux", "prefecture": "Haho", "nom": "Amakpape", "creation": "1952", "surface_km2": 91.4, "lat": 6.7942175612429425, "lon": 1.228707063657156 }, "geometry": { "type": "Polygon", "coordinates": [ [ [ 1.20303137609553, 6.832673947703342 ], [ 1.204562482997462, 6.827073109261893 ], [ 1.2231074599768, 6.829513847119097 ], [ 1.224807949465894, 6.836420554557963 ], [ 1.267292632353996, 6.841535137724917 ], [ 1.279226641697069, 6.76200492089722 ], [ 1.235464227875981, 6.754085145035784 ], [ 1.231604919370446, 6.747601945878162 ], [ 1.239427219068683, 6.731888444725176 ], [ 1.213487930635809, 6.746888995169001 ], [ 1.179692839533035, 6.785578160238477 ], [ 1.175704974429959, 6.813379876986528 ], [ 1.1793129359468, 6.829134742957906 ], [ 1.20303137609553, 6.832673947703342 ] ] ] } },
{ "type": "Feature", "properties": { "region": "Plateaux", "prefecture": "Haho", "nom": "Asrama", "creation": "1941", "surface_km2": 22.7, "lat": 6.9783781978692891, "lon": 1.4011203795383946 }, "geometry": { "type": "Polygon", "coordinates": [ [ [ 1.386477693540894, 7.007357498198073 ], [ 1.412211217325681, 6.993211746686675 ], [ 1.433462471221215, 6.963521852984695 ], [ 1.422043839034961, 6.957445434275884 ], [ 1.398310738135049, 6.955209139712961 ], [ 1.378402100593122, 6.970668481981347 ], [ 1.377868616290314, 7.000211276474782 ], [ 1.386477693540894, 7.007357498198073 ] ], [ [ 1.402259936466137, 6.999863441313978 ], [ 1.40188778948052, 7.000281966732858 ], [ 1.401394372176377, 7.000507470323016 ], [ 1.402259936466137, 6.999863441313978 ] ] ] } },
{ "type": "Feature", "properties": { "region": "Plateaux", "prefecture": "Haho", "nom": "Tetetou Nord", "creation": "1941", "surface_km2": 18.2, "lat": 7.0352809628480486, "lon": 1.4794762248946476 }, "geometry": { "type": "Polygon", "coordinates": [ [ [ 1.470982135390784, 7.057590936226438 ], [ 1.485795954582827, 7.055295988362212 ], [ 1.498577659361244, 7.046696489888513 ], [ 1.49707104437084, 7.013739505236049 ], [ 1.477289965720369, 7.011332527331897 ], [ 1.473428250413402, 7.026843953789332 ], [ 1.448064642341989, 7.028078709254256 ], [ 1.451688990349309, 7.040246125721868 ], [ 1.466908295820295, 7.048204653096692 ], [ 1.470982135390784, 7.057590936226438 ] ] ] } },
{ "type": "Feature", "properties": { "region": "Plateaux", "prefecture": "Haho", "nom": "Haho-baloe", "creation": "1947", "surface_km2": 37.0, "lat": 6.9725341894973045, "lon": 1.0164608577272403 }, "geometry": { "type": "Polygon", "coordinates": [ [ [ 0.991530613468028, 6.989821687505601 ], [ 0.983963775003782, 7.004135805371142 ], [ 0.999610783678149, 7.003895149347697 ], [ 1.012716395560843, 7.010207803053198 ], [ 1.028846923656802, 7.003389975811174 ], [ 1.041349369998128, 6.951284123337975 ], [ 1.054768696924497, 6.928392856218877 ], [ 1.039906998892055, 6.932346612661689 ], [ 1.029877642378118, 6.946224267894721 ], [ 1.014643889517698, 6.946470932831351 ], [ 1.007709196525348, 6.94063705187167 ], [ 0.995701414117226, 6.947088152640318 ], [ 0.995070343108841, 6.967236775524721 ], [ 0.989209023934578, 6.976222334294077 ], [ 0.991530613468028, 6.989821687505601 ] ] ] } },
{ "type": "Feature", "properties": { "region": "Plateaux", "prefecture": "Kpélé", "nom": "Forêt classée d'assime", "creation": "1953", "surface_km2": 9.2, "lat": 7.1581635802519701, "lon": 0.71510692649850716 }, "geometry": { "type": "Polygon", "coordinates": [ [ [ 0.736623483799972, 7.185921529189574 ], [ 0.709792690639845, 7.137659453192926 ], [ 0.700496621108144, 7.12614729819352 ], [ 0.690301855802437, 7.124397814989592 ], [ 0.68929285360867, 7.127790056455619 ], [ 0.700595953881601, 7.134641067589532 ], [ 0.695335493853676, 7.138012130144042 ], [ 0.722325979388286, 7.182311798246726 ], [ 0.728821066166425, 7.187298506250552 ], [ 0.736623483799972, 7.185921529189574 ] ] ] } },
{ "type": "Feature", "properties": { "region": "Plateaux", "prefecture": "Ogou", "nom": "Forêt classée Kanaville", "creation": "Nsp", "surface_km2": 0.4, "lat": 7.5278705654199678, "lon": 1.1686185478514901 }, "geometry": { "type": "Polygon", "coordinates": [ [ [ 1.164401043740599, 7.528991477119363 ], [ 1.17253790126496, 7.530562988940378 ], [ 1.167504423287308, 7.523733093994696 ], [ 1.164401043740599, 7.528991477119363 ] ] ] } },
{ "type": "Feature", "properties": { "region": "Plateaux", "prefecture": "Anié", "nom": "Forêt Kadjotse de Kpatala", "creation": "2021", "surface_km2": 0.1, "lat": 7.7809233159461613, "lon": 1.5427081922830783 }, "geometry": { "type": "Polygon", "coordinates": [ [ [ 1.542851504316885, 7.778624307743471 ], [ 1.542473333333333, 7.783195 ], [ 1.544567451086437, 7.779579569409278 ], [ 1.542851504316885, 7.778624307743471 ] ] ] } },
{ "type": "Feature", "properties": { "region": "Plateaux", "prefecture": "Anié", "nom": "Forêt Tchamin", "creation": "2019", "surface_km2": 0.0, "lat": 7.6539934305058734, "lon": 1.3861459508126657 }, "geometry": { "type": "Polygon", "coordinates": [ [ [ 1.385883333333333, 7.653473333333333 ], [ 1.38656, 7.654415 ], [ 1.385953333333333, 7.654416666666666 ], [ 1.385883333333333, 7.653473333333333 ] ] ] } },
{ "type": "Feature", "properties": { "region": "Plateaux", "prefecture": "Kloto", "nom": "Missahohe", "creation": "1953", "surface_km2": 26.2, "lat": 6.9284210221240246, "lon": 0.57413180413670928 }, "geometry": { "type": "Polygon", "coordinates": [ [ [ 0.559454292336461, 6.888859608853236 ], [ 0.56187911953175, 6.916462812019143 ], [ 0.566196201318479, 6.918810879583476 ], [ 0.557892851548507, 6.930091511907031 ], [ 0.548681748038071, 6.929911968359204 ], [ 0.544699302334908, 6.935547368538068 ], [ 0.549821220567782, 6.9454275816485 ], [ 0.581933829597534, 6.961238480101279 ], [ 0.594386713499632, 6.957766633266698 ], [ 0.597529741795696, 6.954276961315117 ], [ 0.59166447642492, 6.94124444002798 ], [ 0.596648207542884, 6.926896578210106 ], [ 0.579971299438584, 6.895420798113682 ], [ 0.559454292336461, 6.888859608853236 ] ] ] } },
{ "type": "Feature", "properties": { "region": "Plateaux", "prefecture": "Haho", "nom": "Azakpeve", "creation": "1878", "surface_km2": 0.0, "lat": 7.0588865981305062, "lon": 1.2426412200835115 }, "geometry": { "type": "Polygon", "coordinates": [ [ [ 1.242238333333333, 7.0605 ], [ 1.243088333333333, 7.057273333333334 ], [ 1.24283, 7.060361666666667 ], [ 1.242238333333333, 7.0605 ] ] ] } },
{ "type": "Feature", "properties": { "region": "Plateaux", "prefecture": "Kloto", "nom": "Forêt de Huime", "creation": "2018", "surface_km2": 3.9, "lat": 7.0221250821753722, "lon": 0.67259906596873331 }, "geometry": { "type": "Polygon", "coordinates": [ [ [ 0.669539882914152, 7.014631729063602 ], [ 0.692360651237395, 7.026154169484841 ], [ 0.686895356938423, 7.029586765138327 ], [ 0.668207202771862, 7.024380882673663 ], [ 0.657005306675584, 7.027811440685055 ], [ 0.652956228388511, 7.021415518200192 ], [ 0.669539882914152, 7.014631729063602 ] ] ] } },
{ "type": "Feature", "properties": { "region": "Plateaux", "prefecture": "Kloto", "nom": "Forêt Koulope", "creation": "Nsp", "surface_km2": 2.5, "lat": 7.0306442345795448, "lon": 0.67126705593454439 }, "geometry": { "type": "Polygon", "coordinates": [ [ [ 0.683997523625672, 7.032352049918025 ], [ 0.677245530506392, 7.025843412739835 ], [ 0.658096916449001, 7.028075081659281 ], [ 0.658775540454412, 7.034098293322783 ], [ 0.667440186622505, 7.03267453595361 ], [ 0.672626613686602, 7.038366117601577 ], [ 0.683997523625672, 7.032352049918025 ] ] ] } },
{ "type": "Feature", "properties": { "region": "Plateaux", "prefecture": "Moyen-Mono", "nom": "Kounovi", "creation": "Nsp", "surface_km2": 0.3, "lat": 7.2617470113243829, "lon": 1.4977874121854713 }, "geometry": { "type": "Polygon", "coordinates": [ [ [ 1.495830387081563, 7.265619761645048 ], [ 1.500919851549391, 7.262129969179786 ], [ 1.498196707075265, 7.257007735417001 ], [ 1.496241106876479, 7.25921838255536 ], [ 1.495830387081563, 7.265619761645048 ] ] ] } },
{ "type": "Feature", "properties": { "region": "Savanes", "prefecture": "Kpendjal-Ouest", "nom": "Nakpatole", "creation": "2014", "surface_km2": 0.0, "lat": 10.931106072678366, "lon": 0.4449772052142979 }, "geometry": { "type": "Polygon", "coordinates": [ [ [ 0.444006666666667, 10.93098 ], [ 0.445908333333333, 10.931115 ], [ 0.445895, 10.929908333333334 ], [ 0.444006666666667, 10.93098 ] ] ] } },
{ "type": "Feature", "properties": { "region": "Savanes", "prefecture": "Kpendjal-Ouest", "nom": "Douli", "creation": "Nsp", "surface_km2": 0.0, "lat": 10.845161067362435, "lon": 0.43232979081384709 }, "geometry": { "type": "Polygon", "coordinates": [ [ [ 0.432266858434303, 10.845058917529022 ], [ 0.432428101680637, 10.845220793473526 ], [ 0.432194441923895, 10.845307185210245 ], [ 0.432266858434303, 10.845058917529022 ] ] ] } },
{ "type": "Feature", "properties": { "region": "Savanes", "prefecture": "Tandjoaré", "nom": "Moumouane Pak", "creation": "2001", "surface_km2": 0.3, "lat": 10.644214661216806, "lon": 0.23616701978208254 }, "geometry": { "type": "Polygon", "coordinates": [ [ [ 0.237404128699415, 10.647306636890608 ], [ 0.239427497972152, 10.642402013463617 ], [ 0.23686904863244, 10.639973133818931 ], [ 0.232765160850433, 10.64483191634424 ], [ 0.237404128699415, 10.647306636890608 ] ] ] } },
{ "type": "Feature", "properties": { "region": "Savanes", "prefecture": "Oti", "nom": "Forêt classée Galaganshi", "creation": "1900", "surface_km2": 92.0, "lat": 10.403381603636145, "lon": 0.35875612284000402 }, "geometry": { "type": "Polygon", "coordinates": [ [ [ 0.377860161586898, 10.48079414925205 ], [ 0.413685359065387, 10.426058261359067 ], [ 0.378014051350457, 10.39317316458855 ], [ 0.367175260579585, 10.370819771767929 ], [ 0.353801947974491, 10.322159196858907 ], [ 0.342001266833725, 10.32838235416493 ], [ 0.314782225301676, 10.356740565441132 ], [ 0.311011506528788, 10.373658134646252 ], [ 0.34906215146297, 10.454269313546703 ], [ 0.377860161586898, 10.48079414925205 ] ] ] } }
]
}
